COSMOS 2251 DEB         
1 35970U 93036AVL 17345.58652444  .00000966  00000-0  21359-3 0  9997
2 35970  74.0431  83.1244 0041147 212.5578 147.3049 14.58186162439392
